ONEWEB-0176             
1 48210U 21031A   25039.93575089  .00000141  00000+0  34639-3 0  9990
2 48210  87.9010  27.7690 0001844  87.3301 272.8040 13.14504427183514
ONEWEB-0184             
1 48211U 21031B   25039.90877960 -.00000170  00000+0 -49214-3 0  9990
2 48211  87.9007  27.7494 0002686  97.5145 262.6290 13.14504481183487
ONEWEB-0179             
1 48212U 21031C   25039.95478346  .00000271  00000+0  69628-3 0  9992
2 48212  87.9010  27.7524 0001876  83.3707 276.7636 13.14503961183531
ONEWEB-0180             
1 48213U 21031D   25039.91196830 -.00000187  00000+0 -53843-3 0  9994
2 48213  87.9007  27.7522 0002083  85.1553 274.9814 13.14503635183419
ONEWEB-0218             
1 48214U 21031E   25039.93417724  .00000119  00000+0  28604-3 0  9995
2 48214  87.9007  27.7492 0002844  91.6623 268.4833 13.14503668183573
ONEWEB-0209             
1 48215U 21031F   25039.92306681 -.00000071  00000+0 -22646-3 0  9993
2 48215  87.9007  27.7909 0001926  81.1845 278.9503 13.14503660183579
ONEWEB-0198             
1 48216U 21031G   25039.90721907 -.00000171  00000+0 -49452-3 0  9999
2 48216  87.9009  27.7970 0002260  84.9471 275.1917 13.14505853183684
ONEWEB-0189             
1 48217U 21031H   25039.91987608 -.00000446  00000+0 -12376-2 0  9992
2 48217  87.9006  27.7688 0002321  82.9829 277.1564 13.14502602183422
